0 SL-6 R/B(2)
1 15741U 85040D   13287.27787664  .00000795  00000-0  15123+0 0  4765
2 15741 063.8187 108.9912 6824280 279.5091 185.9041 01.96814535203876
0 SL-6 R/B(2)
1 15741U 85040D   13291.13141039  .00001117  00000-0  86059-1 0  4773
2 15741 063.8221 108.5923 6824967 279.4811 036.3176 01.96817688203953
0 SL-6 R/B(2)
1 15741U 85040D   13295.16596890  .00000698  00000-0  86059-1 0  4783
2 15741 063.8216 108.1670 6825838 279.4521 015.0974 01.96826356204030
